STARLINK-2022           
1 47643U 21012Z   24116.64466664  .00025286  00000+0  17086-2 0  9992
2 47643  53.0542 237.9215 0001167  84.8306 275.2816 15.06438351176795
